{
  "type": "FeatureCollection",
  "features": [
    {
      "type": "Feature",
      "properties": {
        "norad_id": 25590,
        "name": "COSMOS 2361",
        "group": "musson",
        "lat": 21.897348217747766,
        "lon": 163.35971030290915,
        "alt_km": 997.4590064644672,
        "timestamp": "2025-12-09T20:37:09.556804+00:00",
        "meta_object_name": "COSMOS 2361",
        "meta_object_id": "1998-076A",
        "meta_epoch": "2025-12-09T11:40:26.349312",
        "meta_mean_motion": 13.73216995,
        "meta_eccentricity": 0.00300621,
        "meta_inclination": 82.9338,
        "meta_ra_of_asc_node": 346.4929,
        "meta_arg_of_pericenter": 275.0544,
        "meta_mean_anomaly": 201.5316,
        "meta_ephemeris_type": 0,
        "meta_classification_type": "U",
        "meta_norad_cat_id": 25590,
        "meta_element_set_no": 999,
        "meta_rev_at_epoch": 35066,
        "meta_bstar": 9.0441851e-05,
        "meta_mean_motion_dot": 9.9e-07,
        "meta_mean_motion_ddot": 0,
        "tle_line1": "1 25590U 98076A   25343.48641608  .00000099  00000+0  90442-4 0  9995",
        "tle_line2": "2 25590  82.9338 346.4929 0030062 275.0544 201.5316 13.73216995350665"
      },
      "geometry": {
        "type": "Point",
        "coordinates": [
          163.35971030290915,
          21.897348217747766
        ]
      }
    },
    {
      "type": "Feature",
      "properties": {
        "norad_id": 26818,
        "name": "COSMOS 2378",
        "group": "musson",
        "lat": -40.94798212593915,
        "lon": -171.95478830142807,
        "alt_km": 967.7696734542642,
        "timestamp": "2025-12-09T20:37:09.556826+00:00",
        "meta_object_name": "COSMOS 2378",
        "meta_object_id": "2001-023A",
        "meta_epoch": "2025-12-09T11:20:25.595808",
        "meta_mean_motion": 13.74141611,
        "meta_eccentricity": 0.00322219,
        "meta_inclination": 82.9273,
        "meta_ra_of_asc_node": 2.1477,
        "meta_arg_of_pericenter": 214.1503,
        "meta_mean_anomaly": 255.5383,
        "meta_ephemeris_type": 0,
        "meta_classification_type": "U",
        "meta_norad_cat_id": 26818,
        "meta_element_set_no": 999,
        "meta_rev_at_epoch": 22878,
        "meta_bstar": 6.2265285e-05,
        "meta_mean_motion_dot": 7.4e-07,
        "meta_mean_motion_ddot": 0,
        "tle_line1": "1 26818U 01023A   25343.47251847  .00000074  00000+0  62265-4 0  9991",
        "tle_line2": "2 26818  82.9273   2.1477 0032221 214.1503 255.5383 13.74141611228782"
      },
      "geometry": {
        "type": "Point",
        "coordinates": [
          -171.95478830142807,
          -40.94798212593915
        ]
      }
    },
    {
      "type": "Feature",
      "properties": {
        "norad_id": 27436,
        "name": "COSMOS 2389",
        "group": "musson",
        "lat": 56.786362581706705,
        "lon": -39.98791048318924,
        "alt_km": 941.2159566134605,
        "timestamp": "2025-12-09T20:37:09.556840+00:00",
        "meta_object_name": "COSMOS 2389",
        "meta_object_id": "2002-026A",
        "meta_epoch": "2025-12-09T15:56:16.689984",
        "meta_mean_motion": 13.75154135,
        "meta_eccentricity": 0.00476882,
        "meta_inclination": 82.95,
        "meta_ra_of_asc_node": 309.2617,
        "meta_arg_of_pericenter": 69.0971,
        "meta_mean_anomaly": 103.4315,
        "meta_ephemeris_type": 0,
        "meta_classification_type": "U",
        "meta_norad_cat_id": 27436,
        "meta_element_set_no": 999,
        "meta_rev_at_epoch": 18106,
        "meta_bstar": 9.1192794e-05,
        "meta_mean_motion_dot": 1.04e-06,
        "meta_mean_motion_ddot": 0,
        "tle_line1": "1 27436U 02026A   25343.66408206  .00000104  00000+0  91193-4 0  9992",
        "tle_line2": "2 27436  82.9500 309.2617 0047688  69.0971 103.4315 13.75154135181069"
      },
      "geometry": {
        "type": "Point",
        "coordinates": [
          -39.98791048318924,
          56.786362581706705
        ]
      }
    },
    {
      "type": "Feature",
      "properties": {
        "norad_id": 27818,
        "name": "COSMOS 2398",
        "group": "musson",
        "lat": 38.17035004559696,
        "lon": -79.59539465062915,
        "alt_km": 984.2827678470294,
        "timestamp": "2025-12-09T20:37:09.556852+00:00",
        "meta_object_name": "COSMOS 2398",
        "meta_object_id": "2003-023A",
        "meta_epoch": "2025-12-09T14:16:24.425760",
        "meta_mean_motion": 13.72385218,
        "meta_eccentricity": 0.00324739,
        "meta_inclination": 82.9483,
        "meta_ra_of_asc_node": 275.0158,
        "meta_arg_of_pericenter": 120.2105,
        "meta_mean_anomaly": 53.1442,
        "meta_ephemeris_type": 0,
        "meta_classification_type": "U",
        "meta_norad_cat_id": 27818,
        "meta_element_set_no": 999,
        "meta_rev_at_epoch": 12773,
        "meta_bstar": 9.6723451e-05,
        "meta_mean_motion_dot": 1.04e-06,
        "meta_mean_motion_ddot": 0,
        "tle_line1": "1 27818U 03023A   25343.59472715  .00000104  00000+0  96723-4 0  9996",
        "tle_line2": "2 27818  82.9483 275.0158 0032473 120.2105  53.1442 13.72385218127739"
      },
      "geometry": {
        "type": "Point",
        "coordinates": [
          -79.59539465062915,
          38.17035004559696
        ]
      }
    },
    {
      "type": "Feature",
      "properties": {
        "norad_id": 28380,
        "name": "COSMOS 2407",
        "group": "musson",
        "lat": -14.36910644394877,
        "lon": 36.83910003404238,
        "alt_km": 1001.293558785519,
        "timestamp": "2025-12-09T20:37:09.556864+00:00",
        "meta_object_name": "COSMOS 2407",
        "meta_object_id": "2004-028A",
        "meta_epoch": "2025-12-09T14:37:11.798976",
        "meta_mean_motion": 13.76313189,
        "meta_eccentricity": 0.00404244,
        "meta_inclination": 82.9611,
        "meta_ra_of_asc_node": 215.2104,
        "meta_arg_of_pericenter": 63.3371,
        "meta_mean_anomaly": 332.8285,
        "meta_ephemeris_type": 0,
        "meta_classification_type": "U",
        "meta_norad_cat_id": 28380,
        "meta_element_set_no": 999,
        "meta_rev_at_epoch": 7380,
        "meta_bstar": 8.183739e-05,
        "meta_mean_motion_dot": 9.6e-07,
        "meta_mean_motion_ddot": 0,
        "tle_line1": "1 28380U 04028A   25343.60916434  .00000096  00000+0  81837-4 0  9990",
        "tle_line2": "2 28380  82.9611 215.2104 0040424  63.3371 332.8285 13.76313189 73803"
      },
      "geometry": {
        "type": "Point",
        "coordinates": [
          36.83910003404238,
          -14.36910644394877
        ]
      }
    },
    {
      "type": "Feature",
      "properties": {
        "norad_id": 28521,
        "name": "COSMOS 2414",
        "group": "musson",
        "lat": -22.562649225248265,
        "lon": -176.1092650719647,
        "alt_km": 970.6933930829255,
        "timestamp": "2025-12-09T20:37:09.556874+00:00",
        "meta_object_name": "COSMOS 2414",
        "meta_object_id": "2005-002A",
        "meta_epoch": "2025-12-09T12:04:42.141792",
        "meta_mean_motion": 13.8790242,
        "meta_eccentricity": 0.0040705,
        "meta_inclination": 82.9495,
        "meta_ra_of_asc_node": 187.1073,
        "meta_arg_of_pericenter": 148.7649,
        "meta_mean_anomaly": 211.5945,
        "meta_ephemeris_type": 0,
        "meta_classification_type": "U",
        "meta_norad_cat_id": 28521,
        "meta_element_set_no": 999,
        "meta_rev_at_epoch": 5750,
        "meta_bstar": 8.3686963e-05,
        "meta_mean_motion_dot": 1.16e-06,
        "meta_mean_motion_ddot": 0,
        "tle_line1": "1 28521U 05002A   25343.50326553  .00000116  00000+0  83687-4 0  9994",
        "tle_line2": "2 28521  82.9495 187.1073 0040705 148.7649 211.5945 13.87902420 57509"
      },
      "geometry": {
        "type": "Point",
        "coordinates": [
          -176.1092650719647,
          -22.562649225248265
        ]
      }
    },
    {
      "type": "Feature",
      "properties": {
        "norad_id": 32052,
        "name": "COSMOS 2429",
        "group": "musson",
        "lat": -62.60741194161315,
        "lon": 179.18780746060744,
        "alt_km": 1015.9469331257123,
        "timestamp": "2025-12-09T20:37:09.556885+00:00",
        "meta_object_name": "COSMOS 2429",
        "meta_object_id": "2007-038A",
        "meta_epoch": "2025-12-09T10:42:32.023872",
        "meta_mean_motion": 13.75148904,
        "meta_eccentricity": 0.00393967,
        "meta_inclination": 82.9802,
        "meta_ra_of_asc_node": 345.737,
        "meta_arg_of_pericenter": 46.8383,
        "meta_mean_anomaly": 313.6055,
        "meta_ephemeris_type": 0,
        "meta_classification_type": "U",
        "meta_norad_cat_id": 32052,
        "meta_element_set_no": 999,
        "meta_rev_at_epoch": 91557,
        "meta_bstar": 7.3832477e-05,
        "meta_mean_motion_dot": 8.6e-07,
        "meta_mean_motion_ddot": 0,
        "tle_line1": "1 32052U 07038A   25343.44620398  .00000086  00000+0  73832-4 0  9993",
        "tle_line2": "2 32052  82.9802 345.7370 0039396  46.8383 313.6055 13.75148904915576"
      },
      "geometry": {
        "type": "Point",
        "coordinates": [
          179.18780746060744,
          -62.60741194161315
        ]
      }
    },
    {
      "type": "Feature",
      "properties": {
        "norad_id": 35635,
        "name": "COSMOS 2454",
        "group": "musson",
        "lat": 6.280097441015051,
        "lon": 171.60827239379503,
        "alt_km": 927.0228028141764,
        "timestamp": "2025-12-09T20:37:09.556896+00:00",
        "meta_object_name": "COSMOS 2454",
        "meta_object_id": "2009-039A",
        "meta_epoch": "2025-12-09T12:02:36.218976",
        "meta_mean_motion": 13.89927943,
        "meta_eccentricity": 0.00204834,
        "meta_inclination": 82.9555,
        "meta_ra_of_asc_node": 171.0995,
        "meta_arg_of_pericenter": 82.3706,
        "meta_mean_anomaly": 297.333,
        "meta_ephemeris_type": 0,
        "meta_classification_type": "U",
        "meta_norad_cat_id": 35635,
        "meta_element_set_no": 999,
        "meta_rev_at_epoch": 83105,
        "meta_bstar": 5.9777279e-05,
        "meta_mean_motion_dot": 9e-07,
        "meta_mean_motion_ddot": 0,
        "tle_line1": "1 35635U 09039A   25343.50180809  .00000090  00000+0  59777-4 0  9998",
        "tle_line2": "2 35635  82.9555 171.0995 0020483  82.3706 297.3330 13.89927943831052"
      },
      "geometry": {
        "type": "Point",
        "coordinates": [
          171.60827239379503,
          6.280097441015051
        ]
      }
    },
    {
      "type": "Feature",
      "properties": {
        "norad_id": 36519,
        "name": "COSMOS 2463",
        "group": "musson",
        "lat": -55.306428609983854,
        "lon": -140.89057541954244,
        "alt_km": 987.9670960681296,
        "timestamp": "2025-12-09T20:37:09.556907+00:00",
        "meta_object_name": "COSMOS 2463",
        "meta_object_id": "2010-017A",
        "meta_epoch": "2025-12-09T12:59:58.877088",
        "meta_mean_motion": 13.71648838,
        "meta_eccentricity": 0.00348604,
        "meta_inclination": 82.9616,
        "meta_ra_of_asc_node": 29.0627,
        "meta_arg_of_pericenter": 297.2558,
        "meta_mean_anomaly": 172.124,
        "meta_ephemeris_type": 0,
        "meta_classification_type": "U",
        "meta_norad_cat_id": 36519,
        "meta_element_set_no": 999,
        "meta_rev_at_epoch": 78193,
        "meta_bstar": 7.5710332e-05,
        "meta_mean_motion_dot": 8.3e-07,
        "meta_mean_motion_ddot": 0,
        "tle_line1": "1 36519U 10017A   25343.54165367  .00000083  00000+0  75710-4 0  9991",
        "tle_line2": "2 36519  82.9616  29.0627 0034860 297.2558 172.1240 13.71648838781937"
      },
      "geometry": {
        "type": "Point",
        "coordinates": [
          -140.89057541954244,
          -55.306428609983854
        ]
      }
    }
  ]
}